countryNameID	countryName	countryID	isoCode	countryCode3Char	countryNameStd	isNewWorld
1	Afghanistan	3	AF	AFG	Afghanistan	NULL
2	Afganistán	3	AF	AFG	Afghanistan	NULL
3	Afeganistão	3	AF	AFG	Afghanistan	NULL
4	Aland Islands	16	AX	ALA	Åland Islands	NULL
5	Aland, Iles	16	AX	ALA	Åland Islands	NULL
6	Îles D' Åland	16	AX	ALA	Åland Islands	NULL
7	Albania	6	AL	ALB	Albania	NULL
8	Albanie	6	AL	ALB	Albania	NULL
9	Algeria	63	DZ	DZA	Algeria	NULL
10	Algerie	63	DZ	DZA	Algeria	NULL
11	Argelia	63	DZ	DZA	Algeria	NULL
12	American Samoa	12	AS	ASM	American Samoa	NULL
13	Samoa Americaines	12	AS	ASM	American Samoa	NULL
14	Samoas Américaines	12	AS	ASM	American Samoa	NULL
15	Samoa Americana	12	AS	ASM	American Samoa	NULL
16	Andorra	1	AD	AND	Andorra	NULL
17	Andorre	1	AD	AND	Andorra	NULL
18	Angola	9	AO	AGO	Angola	NULL
19	Anguilla	5	AI	AIA	Anguilla	1
20	Anguila	5	AI	AIA	Anguilla	1
21	Antarctica	10	AQ		Antarctica	NULL
22	Antarctique	10	AQ		Antarctica	NULL
23	Antártida	10	AQ		Antarctica	NULL
24	Antárctida	10	AQ		Antarctica	NULL
25	Antártica	10	AQ		Antarctica	NULL
26	Antigua and Barbuda	4	AG	ATG	Antigua and Barbuda	1
27	Antigua et Barbuda	4	AG	ATG	Antigua and Barbuda	1
28	Antigua-et-Barbuda	4	AG	ATG	Antigua and Barbuda	1
29	Antigua y Barbuda	4	AG	ATG	Antigua and Barbuda	1
30	Antígua e Barbuda	4	AG	ATG	Antigua and Barbuda	1
31	Argentina	11	AR	ARG	Argentina	1
32	Argentine	11	AR	ARG	Argentina	1
33	Armenia	7	AM	ARM	Armenia	NULL
34	Armenie	7	AM	ARM	Armenia	NULL
35	Aruba	15	AW	ABW	Aruba	NULL
36	Australia	14	AU	AUS	Australia	NULL
37	Australie	14	AU	AUS	Australia	NULL
38	Austria	13	AT	AUT	Austria	NULL
39	Autriche	13	AT	AUT	Austria	NULL
40	Azerbaidjan	17	AZ	AZE	Azerbaijan	NULL
41	Azerbaijan	17	AZ	AZE	Azerbaijan	NULL
42	Azerbaiyán	17	AZ	AZE	Azerbaijan	NULL
43	Azerbaijão	17	AZ	AZE	Azerbaijan	NULL
44	Bahamas	33	BS	BHS	Bahamas	1
45	Baamas	33	BS	BHS	Bahamas	1
46	Bahrain	24	BH	BHR	Bahrain	NULL
47	Bahrein	24	BH	BHR	Bahrain	NULL
48	Barém	24	BH	BHR	Bahrain	NULL
49	Bangladesh	20	BD	BGD	Bangladesh	NULL
50	Bangladeche	20	BD	BGD	Bangladesh	NULL
51	Barbade	19	BB	BRB	Barbados	1
52	Barbados	19	BB	BRB	Barbados	1
53	Belarus	37	BY	BLR	Belarus	NULL
54	Bielorrusia	37	BY	BLR	Belarus	NULL
55	Bielorrússia	37	BY	BLR	Belarus	NULL
56	Belgique	21	BE	BEL	Belgium	NULL
57	Belgium	21	BE	BEL	Belgium	NULL
58	Bélgica	21	BE	BEL	Belgium	NULL
59	Belize	38	BZ	BLZ	Belize	1
60	Belice	38	BZ	BLZ	Belize	1
61	British Honduras	38	BZ	BLZ	Belize	1
62	Benin	26	BJ	BEN	Benin	NULL
63	Benim	26	BJ	BEN	Benin	NULL
64	Bermuda	28	BM	BMU	Bermuda	1
65	Bermudes	28	BM	BMU	Bermuda	1
66	Bermudas	28	BM	BMU	Bermuda	1
67	Bhoutan	34	BT	BTN	Bhutan	NULL
68	Bhutan	34	BT	BTN	Bhutan	NULL
69	Bután	34	BT	BTN	Bhutan	NULL
70	Butão	34	BT	BTN	Bhutan	NULL
71	Bolivia	30	BO	BOL	Bolivia	1
72	Bolivia (Plurinational State of)	30	BO	BOL	Bolivia	1
73	Bolivie (État Plurinational de)	30	BO	BOL	Bolivia	1
74	Bolivie, L'Etat Plurinational de	30	BO	BOL	Bolivia	1
75	Plurinational State of Bolivia	30	BO	BOL	Bolivia	1
76	Bonaire, Saint Eustatius and Saba	31	BQ	BES	Bonaire, Saint Eustatius and Saba	1
77	Bonaire, Saint-Eustache et Saba	31	BQ	BES	Bonaire, Saint Eustatius and Saba	1
78	Bosnia and Herzegovina	18	BA	BIH	Bosnia and Herzegovina	NULL
79	Bosnie-Herzegovine	18	BA	BIH	Bosnia and Herzegovina	NULL
80	Bosnia y Hercegovina	18	BA	BIH	Bosnia and Herzegovina	NULL
81	Bósnia e Herzegovina	18	BA	BIH	Bosnia and Herzegovina	NULL
82	Bosnia Herzegovina	18	BA	BIH	Bosnia and Herzegovina	NULL
83	Botswana	36	BW	BWA	Botswana	NULL
84	Botsuana	36	BW	BWA	Botswana	NULL
85	Bouvet Island	35	BV		Bouvet Island	NULL
86	Bouvet, Ile	35	BV		Bouvet Island	NULL
87	Isla Bouvet	35	BV		Bouvet Island	NULL
88	Ilha Bouvet	35	BV		Bouvet Island	NULL
89	Brazil	32	BR	BRA	Brazil	1
90	Bresil	32	BR	BRA	Brazil	1
91	Brasil	32	BR	BRA	Brazil	1
92	British Indian Ocean Territory	107	IO		British Indian Ocean Territory	NULL
93	Ocean Indien, Territoire Britannique de L'	107	IO		British Indian Ocean Territory	NULL
94	Territorio Británico del Océano Indico	107	IO		British Indian Ocean Territory	NULL
95	Território Britânico do Oceano Índico	107	IO		British Indian Ocean Territory	NULL
96	British Virgin Islands	239	VG	VGB	British Virgin Islands	1
97	Iles Vierges Britanniques	239	VG	VGB	British Virgin Islands	1
98	Virgin Islands (British)	239	VG	VGB	British Virgin Islands	1
99	Virgin Islands, British	239	VG	VGB	British Virgin Islands	1
100	Islas Vírgenes Británicas	239	VG	VGB	British Virgin Islands	1
101	Ilhas Virgens Britânicas	239	VG	VGB	British Virgin Islands	1
102	Brunei Darussalam	29	BN	BRN	Brunei Darussalam	NULL
103	Brunéi	29	BN	BRN	Brunei Darussalam	NULL
104	Bulgaria	23	BG	BGR	Bulgaria	NULL
105	Bulgarie	23	BG	BGR	Bulgaria	NULL
106	Burkina Faso	22	BF	BFA	Burkina Faso	NULL
107	Burquina Faso	22	BF	BFA	Burkina Faso	NULL
108	Burundi	25	BI	BDI	Burundi	NULL
109	Cambodge	118	KH	KHM	Cambodia	NULL
110	Cambodia	118	KH	KHM	Cambodia	NULL
111	Camboya	118	KH	KHM	Cambodia	NULL
112	Camboja	118	KH	KHM	Cambodia	NULL
113	Cameroon	48	CM	CMR	Cameroon	NULL
114	Cameroun	48	CM	CMR	Cameroon	NULL
115	Camerún	48	CM	CMR	Cameroon	NULL
116	Camarões	48	CM	CMR	Cameroon	NULL
117	Canada	39	CA	CAN	Canada	1
118	Cape Verde	53	CV	CPV	Cape Verde	NULL
119	Cap-Vert	53	CV	CPV	Cape Verde	NULL
120	Cabo Verde	53	CV	CPV	Cape Verde	NULL
121	Caimanes, Iles	125	KY	CYM	Cayman Islands	1
122	Cayman Islands	125	KY	CYM	Cayman Islands	1
123	Îles Caïmanes	125	KY	CYM	Cayman Islands	1
124	Islas Caimán	125	KY	CYM	Cayman Islands	1
125	Ilhas Caimão	125	KY	CYM	Cayman Islands	1
126	Centrafricaine, Republique	42	CF	CAF	Central African Republic	NULL
127	Central African Republic	42	CF	CAF	Central African Republic	NULL
128	République Centrafricaine	42	CF	CAF	Central African Republic	NULL
129	República Centroafricana	42	CF	CAF	Central African Republic	NULL
130	República Centro-Africana	42	CF	CAF	Central African Republic	NULL
131	Chad	215	TD	TCD	Chad	NULL
132	Tchad	215	TD	TCD	Chad	NULL
133	Chade	215	TD	TCD	Chad	NULL
134	Chile	47	CL	CHL	Chile	1
135	Chili	47	CL	CHL	Chile	1
136	China	49	CN	CHN	China	NULL
137	Chine	49	CN	CHN	China	NULL
138	Christmas Island	55	CX		Christmas Island	NULL
139	Christmas, Ile	55	CX		Christmas Island	NULL
140	Isla Christmas	55	CX		Christmas Island	NULL
141	Ilha do Natal	55	CX		Christmas Island	NULL
142	Cocos (Keeling) Islands	40	CC		Cocos (Keeling) Islands	NULL
143	Cocos (Keeling), Iles	40	CC		Cocos (Keeling) Islands	NULL
144	Cocos Keeling Islands	40	CC		Cocos (Keeling) Islands	NULL
145	Islas Cocos	40	CC		Cocos (Keeling) Islands	NULL
146	Ilhas dos Cocos	40	CC		Cocos (Keeling) Islands	NULL
147	Colombia	50	CO	COL	Colombia	1
148	Colombie	50	CO	COL	Colombia	1
149	Comores	120	KM	COM	Comoros	NULL
150	Comoros	120	KM	COM	Comoros	NULL
151	Comoras	120	KM	COM	Comoros	NULL
152	Congo	43	CG	COG	Congo	NULL
153	Congo-Brazzaville	43	CG	COG	Congo	NULL
154	Congo (The Democratic Republic of the)	41	CD	COD	Congo, The Democratic Republic of the	NULL
155	Congo, La Republique Democratique du	41	CD	COD	Congo, The Democratic Republic of the	NULL
156	Congo, The Democratic Republic of the	41	CD	COD	Congo, The Democratic Republic of the	NULL
157	Democratic Republic of the Congo	41	CD	COD	Congo, The Democratic Republic of the	NULL
158	République Démocratique du Congo	41	CD	COD	Congo, The Democratic Republic of the	NULL
159	The Democratic Republic of the Congo	41	CD	COD	Congo, The Democratic Republic of the	NULL
160	República Democrática del Congo	41	CD	COD	Congo, The Democratic Republic of the	NULL
161	Congo-Kinshasa	41	CD	COD	Congo, The Democratic Republic of the	NULL
162	Belgian Congo	41	CD	COD	Congo, The Democratic Republic of the	NULL
163	Congo Belge	41	CD	COD	Congo, The Democratic Republic of the	NULL
164	Republica Democratica do Congo	41	CD	COD	Congo, The Democratic Republic of the	NULL
165	Zaire	41	CD	COD	Congo, The Democratic Republic of the	NULL
166	Cook Islands	46	CK	COK	Cook Islands	NULL
167	Cook, Iles	46	CK	COK	Cook Islands	NULL
168	Îles Cook	46	CK	COK	Cook Islands	NULL
169	Islas Cook	46	CK	COK	Cook Islands	NULL
170	Ilhas Cook	46	CK	COK	Cook Islands	NULL
171	Costa Rica	51	CR	CRI	Costa Rica	1
172	Cote D Ivoire	45	CI	CIV	Cote D'Ivoire	NULL
173	Cote D'Ivoire	45	CI	CIV	Cote D'Ivoire	NULL
174	Costa de Marfil	45	CI	CIV	Cote D'Ivoire	NULL
175	Costa do Marfim	45	CI	CIV	Cote D'Ivoire	NULL
176	Ivory Coast	45	CI	CIV	Cote D'Ivoire	NULL
177	Croatia	99	HR	HRV	Croatia	NULL
178	Croatie	99	HR	HRV	Croatia	NULL
179	Croacia	99	HR	HRV	Croatia	NULL
180	Cuba	52	CU	CUB	Cuba	1
181	Curacao	54	CW	CUW	Curacao	1
182	Chypre	56	CY	CYP	Cyprus	NULL
183	Cyprus	56	CY	CYP	Cyprus	NULL
184	Chipre	56	CY	CYP	Cyprus	NULL
185	Czech Republic	57	CZ	CZE	Czech Republic	NULL
186	République Tchèque	57	CZ	CZE	Czech Republic	NULL
187	Tcheque, Republique	57	CZ	CZE	Czech Republic	NULL
188	República Checa; Chequia	57	CZ	CZE	Czech Republic	NULL
189	República Checa	57	CZ	CZE	Czech Republic	NULL
190	Republica Tcheca	57	CZ	CZE	Czech Republic	NULL
191	Danemark	60	DK	DNK	Denmark	NULL
192	Denmark	60	DK	DNK	Denmark	NULL
193	Dinamarca	60	DK	DNK	Denmark	NULL
194	Djibouti	59	DJ	DJI	Djibouti	NULL
195	Yibuti	59	DJ	DJI	Djibouti	NULL
196	Jibuti	59	DJ	DJI	Djibouti	NULL
197	Dominica	61	DM	DMA	Dominica	1
198	Dominique	61	DM	DMA	Dominica	1
199	Dominicaine, Republique	62	DO	DOM	Dominican Republic	1
200	Dominican Republic	62	DO	DOM	Dominican Republic	1
201	République Dominicaine	62	DO	DOM	Dominican Republic	1
202	República Dominicana	62	DO	DOM	Dominican Republic	1
203	Ecuador	64	EC	ECU	Ecuador	1
204	Equateur	64	EC	ECU	Ecuador	1
205	Equador	64	EC	ECU	Ecuador	1
206	Egypt	66	EG	EGY	Egypt	NULL
207	Egypte	66	EG	EGY	Egypt	NULL
208	Egipto	66	EG	EGY	Egypt	NULL
209	El Salvador	210	SV	SLV	El Salvador	1
210	Salvador	210	SV	SLV	El Salvador	1
211	Equatorial Guinea	89	GQ	GNQ	Equatorial Guinea	NULL
212	Guinee Equatoriale	89	GQ	GNQ	Equatorial Guinea	NULL
213	Guinea Ecuatorial	89	GQ	GNQ	Equatorial Guinea	NULL
214	Guiné Equatorial	89	GQ	GNQ	Equatorial Guinea	NULL
215	Eritrea	68	ER	ERI	Eritrea	NULL
216	Erythree	68	ER	ERI	Eritrea	NULL
217	Eritreia	68	ER	ERI	Eritrea	NULL
218	Estonia	65	EE	EST	Estonia	NULL
219	Estonie	65	EE	EST	Estonia	NULL
220	Ethiopia	70	ET	ETH	Ethiopia	NULL
221	Ethiopie	70	ET	ETH	Ethiopia	NULL
222	Etiopía	70	ET	ETH	Ethiopia	NULL
223	Falkland Islands	73	FK	FLK	Falkland Islands (Malvinas)	1
224	Falkland Islands (Malvinas)	73	FK	FLK	Falkland Islands (Malvinas)	1
225	Falkland, Iles (Malvinas)	73	FK	FLK	Falkland Islands (Malvinas)	1
226	Îles Falkland (Malvinas)	73	FK	FLK	Falkland Islands (Malvinas)	1
227	Malvinas	73	FK	FLK	Falkland Islands (Malvinas)	1
228	Islas Malvinas	73	FK	FLK	Falkland Islands (Malvinas)	1
229	Ilhas Falkland	73	FK	FLK	Falkland Islands (Malvinas)	1
230	Faeroe Islands	75	FO	FRO	Faroe Islands	NULL
231	Faroe Islands	75	FO	FRO	Faroe Islands	NULL
232	Feroe, Iles	75	FO	FRO	Faroe Islands	NULL
233	Îles Féroé	75	FO	FRO	Faroe Islands	NULL
234	Islas Feroe	75	FO	FRO	Faroe Islands	NULL
235	Faroé	75	FO	FRO	Faroe Islands	NULL
236	Fidji	72	FJ	FJI	Fiji	NULL
237	Fiji	72	FJ	FJI	Fiji	NULL
238	Fiyi	72	FJ	FJI	Fiji	NULL
239	Finland	71	FI	FIN	Finland	NULL
240	Finlande	71	FI	FIN	Finland	NULL
241	Finlandia	71	FI	FIN	Finland	NULL
242	France	76	FR	FRA	France	NULL
243	Francia	76	FR	FRA	France	NULL
244	França	76	FR	FRA	France	NULL
245	French Guiana	81	GF	GUF	French Guiana	1
246	Guyane Francaise	81	GF	GUF	French Guiana	1
247	Guayana Francesa	81	GF	GUF	French Guiana	1
248	Guiana Francesa	81	GF	GUF	French Guiana	1
249	Guiane Francaise	81	GF	GUF	French Guiana	1
250	Guyana Francaise	81	GF	GUF	French Guiana	1
251	Guyana Francesa	81	GF	GUF	French Guiana	1
252	French Polynesia	176	PF	PYF	French Polynesia	NULL
253	Polynesie Francaise	176	PF	PYF	French Polynesia	NULL
254	Polinesia Francesa	176	PF	PYF	French Polynesia	NULL
255	French Southern Territories	216	TF		French Southern Territories	NULL
256	Terres Australes Francaises	216	TF		French Southern Territories	NULL
257	Territorios Australes Franceses	216	TF		French Southern Territories	NULL
258	Territórios Austrais Franceses	216	TF		French Southern Territories	NULL
259	Gabon	77	GA	GAB	Gabon	NULL
260	Gabão	77	GA	GAB	Gabon	NULL
261	Gambia	86	GM	GMB	Gambia	NULL
262	Gambie	86	GM	GMB	Gambia	NULL
263	Georgia	80	GE	GEO	Georgia	NULL
264	Georgie	80	GE	GEO	Georgia	NULL
265	Republic of Georgia	80	GE	GEO	Georgia	NULL
266	Allemagne	58	DE	DEU	Germany	NULL
267	Germany	58	DE	DEU	Germany	NULL
268	Alemania	58	DE	DEU	Germany	NULL
269	Alemanha	58	DE	DEU	Germany	NULL
270	Ghana	83	GH	GHA	Ghana	NULL
271	Gana	83	GH	GHA	Ghana	NULL
272	Gibraltar	84	GI	GIB	Gibraltar	NULL
273	Grece	90	GR	GRC	Greece	NULL
274	Greece	90	GR	GRC	Greece	NULL
275	Grecia	90	GR	GRC	Greece	NULL
276	Greenland	85	GL	GRL	Greenland	1
277	Groenland	85	GL	GRL	Greenland	1
278	Groenlandia	85	GL	GRL	Greenland	1
279	Gronelândia	85	GL	GRL	Greenland	1
280	Grenada	79	GD	GRD	Grenada	1
281	Grenade	79	GD	GRD	Grenada	1
282	Granada	79	GD	GRD	Grenada	1
283	Guadeloupe	88	GP	GLP	Guadeloupe	1
284	Guadalupe	88	GP	GLP	Guadeloupe	1
285	Guam	93	GU	GUM	Guam	NULL
286	Guame	93	GU	GUM	Guam	NULL
287	Guatemala	92	GT	GTM	Guatemala	1
288	Guernesey	82	GG	GGY	Guernsey	NULL
289	Guernsey	82	GG	GGY	Guernsey	NULL
290	Guinea	87	GN	GIN	Guinea	NULL
291	Guinee	87	GN	GIN	Guinea	NULL
292	Guiné	87	GN	GIN	Guinea	NULL
293	Guinea-Bissau	94	GW	GNB	Guinea-Bissau	NULL
294	Guinee-Bissau	94	GW	GNB	Guinea-Bissau	NULL
295	Guiné-Bissau	94	GW	GNB	Guinea-Bissau	NULL
296	Guyana	95	GY	GUY	Guyana	1
297	Guiana	95	GY	GUY	Guyana	1
298	British Guiana	95	GY	GUY	Guyana	1
299	Guyana Inglesa	95	GY	GUY	Guyana	1
300	Haiti	100	HT	HTI	Haiti	1
301	Heard Island and Mcdonald Islands	97	HM		Heard Island and Mcdonald Islands	NULL
302	Heard, Ile et Mcdonald, Iles	97	HM		Heard Island and Mcdonald Islands	NULL
303	Islas Heard y McDonald	97	HM		Heard Island and Mcdonald Islands	NULL
304	Ilhas Heard e McDonald	97	HM		Heard Island and Mcdonald Islands	NULL
305	Honduras	98	HN	HND	Honduras	1
306	China, Hong Kong Special Administrative Region	96	HK	HKG	Hong Kong	NULL
307	Chine, Région Administrative Spéciale de Hong Kong	96	HK	HKG	Hong Kong	NULL
308	Hong Kong	96	HK	HKG	Hong Kong	NULL
309	Hongrie	101	HU	HUN	Hungary	NULL
310	Hungary	101	HU	HUN	Hungary	NULL
311	Hungría	101	HU	HUN	Hungary	NULL
312	Iceland	110	IS	ISL	Iceland	NULL
313	Islande	110	IS	ISL	Iceland	NULL
314	Islandia	110	IS	ISL	Iceland	NULL
315	Inde	106	IN	IND	India	NULL
316	India	106	IN	IND	India	NULL
317	India (la)	106	IN	IND	India	NULL
318	Indonesia	102	ID	IDN	Indonesia	NULL
319	Indonesie	102	ID	IDN	Indonesia	NULL
320	Iran (Islamic Republic of)	109	IR	IRN	Iran, Islamic Republic of	NULL
321	Iran (République Islamique d')	109	IR	IRN	Iran, Islamic Republic of	NULL
322	Iran)	109	IR	IRN	Iran, Islamic Republic of	NULL
323	Iran, Islamic Republic of	109	IR	IRN	Iran, Islamic Republic of	NULL
324	Iran, Republique Islamique d'	109	IR	IRN	Iran, Islamic Republic of	NULL
325	Islamic Republic of Iran	109	IR	IRN	Iran, Islamic Republic of	NULL
326	Irán	109	IR	IRN	Iran, Islamic Republic of	NULL
327	Irão	109	IR	IRN	Iran, Islamic Republic of	NULL
328	Iraq	108	IQ	IRQ	Iraq	NULL
329	Iraque	108	IQ	IRQ	Iraq	NULL
330	Ireland	103	IE	IRL	Ireland	NULL
331	Irlande	103	IE	IRL	Ireland	NULL
332	Irlanda	103	IE	IRL	Ireland	NULL
333	Ile de Man	105	IM	IMN	Isle of Man	NULL
334	Isle of Man	105	IM	IMN	Isle of Man	NULL
335	Israel	104	IL	ISR	Israel	NULL
336	Italie	111	IT	ITA	Italy	NULL
337	Italy	111	IT	ITA	Italy	NULL
338	Italia	111	IT	ITA	Italy	NULL
339	Jamaica	113	JM	JAM	Jamaica	1
340	Jamaique	113	JM	JAM	Jamaica	1
341	Japan	115	JP	JPN	Japan	NULL
342	Japon	115	JP	JPN	Japan	NULL
343	Japão	115	JP	JPN	Japan	NULL
344	Jersey	112	JE	JEY	Jersey	NULL
345	Le Jersey	112	JE	JEY	Jersey	NULL
346	Jordan	114	JO	JOR	Jordan	NULL
347	Jordanie	114	JO	JOR	Jordan	NULL
348	Jordania	114	JO	JOR	Jordan	NULL
349	Kazakhstan	126	KZ	KAZ	Kazakhstan	NULL
350	Kazajistán	126	KZ	KAZ	Kazakhstan	NULL
351	Cazaquistão	126	KZ	KAZ	Kazakhstan	NULL
352	Kenya	116	KE	KEN	Kenya	NULL
353	Kenia	116	KE	KEN	Kenya	NULL
354	Quénia	116	KE	KEN	Kenya	NULL
355	Kiribati	119	KI	KIR	Kiribati	NULL
356	Quiribáti	119	KI	KIR	Kiribati	NULL
357	Coree, Republique Populaire Democratique De	122	KP	PRK	Korea, Democratic People's Republic of	NULL
358	Democratic Peoples Republic of Korea	122	KP	PRK	Korea, Democratic People's Republic of	NULL
359	Democratic People's Republic of Korea	122	KP	PRK	Korea, Democratic People's Republic of	NULL
360	Korea	122	KP	PRK	Korea, Democratic People's Republic of	NULL
361	Korea (Democratic Peoples Republic of)	122	KP	PRK	Korea, Democratic People's Republic of	NULL
362	Korea, Democratic People's Republic of	122	KP	PRK	Korea, Democratic People's Republic of	NULL
363	République Populaire Démocratique de Corée	122	KP	PRK	Korea, Democratic People's Republic of	NULL
364	Corea del Norte	122	KP	PRK	Korea, Democratic People's Republic of	NULL
365	Coreia do Norte	122	KP	PRK	Korea, Democratic People's Republic of	NULL
366	North Korea	122	KP	PRK	Korea, Democratic People's Republic of	NULL
367	Coree, Republique De	123	KR	KOR	Korea, Republic of	NULL
368	Korea (Republic of)	123	KR	KOR	Korea, Republic of	NULL
369	Korea, Republic of	123	KR	KOR	Korea, Republic of	NULL
370	Republic of Korea	123	KR	KOR	Korea, Republic of	NULL
371	République de Corée	123	KR	KOR	Korea, Republic of	NULL
372	Corea del Sur	123	KR	KOR	Korea, Republic of	NULL
373	Coreia do Sul	123	KR	KOR	Korea, Republic of	NULL
374	South Korea	123	KR	KOR	Korea, Republic of	NULL
375	Koweit	124	KW	KWT	Kuwait	NULL
376	Kuwait	124	KW	KWT	Kuwait	NULL
377	Kirghizistan	117	KG	KGZ	Kyrgyzstan	NULL
378	Kyrgyzstan	117	KG	KGZ	Kyrgyzstan	NULL
379	Kirguizistán	117	KG	KGZ	Kyrgyzstan	NULL
380	Quirguizistão	117	KG	KGZ	Kyrgyzstan	NULL
381	Lao	127	LA	LAO	Lao People's Democratic Republic	NULL
382	Lao (Peoples Democratic Republic)	127	LA	LAO	Lao People's Democratic Republic	NULL
383	Lao People's Democratic Republic	127	LA	LAO	Lao People's Democratic Republic	NULL
384	Lao, Republique Democratique Populaire	127	LA	LAO	Lao People's Democratic Republic	NULL
385	Peoples Democratic Republic of Lao	127	LA	LAO	Lao People's Democratic Republic	NULL
386	République Démocratique Populaire Lao	127	LA	LAO	Lao People's Democratic Republic	NULL
387	Laos	127	LA	LAO	Lao People's Democratic Republic	NULL
388	Latvia	136	LV	LVA	Latvia	NULL
389	Lettonie	136	LV	LVA	Latvia	NULL
390	Letonia	136	LV	LVA	Latvia	NULL
391	Lebanon	128	LB	LBN	Lebanon	NULL
392	Liban	128	LB	LBN	Lebanon	NULL
393	Líbano	128	LB	LBN	Lebanon	NULL
394	Lesotho	133	LS	LSO	Lesotho	NULL
395	Lesoto	133	LS	LSO	Lesotho	NULL
396	Jamahiriya Arabe Libyenne	132	LR	LBR	Liberia	NULL
397	Liberia	132	LR	LBR	Liberia	NULL
398	Libyan Arab Jamahiriya	137	LY	LBY	Libyan Arab Jamahiriya	NULL
399	Libyenne, Jamahiriya Arabe	137	LY	LBY	Libyan Arab Jamahiriya	NULL
400	Libia	137	LY	LBY	Libyan Arab Jamahiriya	NULL
401	Liechtenstein	130	LI	LIE	Liechtenstein	NULL
402	Listenstaine	130	LI	LIE	Liechtenstein	NULL
403	Lithuania	134	LT	LTU	Lithuania	NULL
404	Lituanie	134	LT	LTU	Lithuania	NULL
405	Lituania	134	LT	LTU	Lithuania	NULL
406	Luxembourg	135	LU	LUX	Luxembourg	NULL
407	Luxemburgo	135	LU	LUX	Luxembourg	NULL
408	China, Macao Special Administrative Region	149	MO	MAC	Macao	NULL
409	Chine, Région Administrative Spéciale de Macao	149	MO	MAC	Macao	NULL
410	Macao	149	MO	MAC	Macao	NULL
411	Macau	149	MO	MAC	Macao	NULL
412	Ex-République Yougoslave de Macédoine	145	MK	MKD	Macedonia, The Former Yugoslav Republic of	NULL
413	Macedoine, L'Ex-Republique Yougoslave De	145	MK	MKD	Macedonia, The Former Yugoslav Republic of	NULL
414	Macedonia	145	MK	MKD	Macedonia, The Former Yugoslav Republic of	NULL
415	Macedonia (The Former Yugoslav Republic of)	145	MK	MKD	Macedonia, The Former Yugoslav Republic of	NULL
416	Macedonia, The Former Yugoslav Republic of	145	MK	MKD	Macedonia, The Former Yugoslav Republic of	NULL
417	The Former Yugoslav Republic of Macedonia	145	MK	MKD	Macedonia, The Former Yugoslav Republic of	NULL
418	Madagascar	143	MG	MDG	Madagascar	NULL
419	Malawi	157	MW	MWI	Malawi	NULL
420	Malaui	157	MW	MWI	Malawi	NULL
421	Malávi	157	MW	MWI	Malawi	NULL
422	Malaisie	159	MY	MYS	Malaysia	NULL
423	Malaysia	159	MY	MYS	Malaysia	NULL
424	Malasia	159	MY	MYS	Malaysia	NULL
425	Maldives	156	MV	MDV	Maldives	NULL
426	Maldivas	156	MV	MDV	Maldives	NULL
427	Mali	146	ML	MLI	Mali	NULL
428	Malta	154	MT	MLT	Malta	NULL
429	Malte	154	MT	MLT	Malta	NULL
430	Îles Marshall	144	MH	MHL	Marshall Islands	NULL
431	Marshall Islands	144	MH	MHL	Marshall Islands	NULL
432	Marshall, Iles	144	MH	MHL	Marshall Islands	NULL
433	Islas Marshall	144	MH	MHL	Marshall Islands	NULL
434	Ilhas Marshall	144	MH	MHL	Marshall Islands	NULL
435	Martinique	151	MQ	MTQ	Martinique	1
436	Martinica	151	MQ	MTQ	Martinique	1
437	Mauritania	152	MR	MRT	Mauritania	NULL
438	Mauritanie	152	MR	MRT	Mauritania	NULL
439	Maurice	155	MU	MUS	Mauritius	NULL
440	Mauritius	155	MU	MUS	Mauritius	NULL
441	Mauricio	155	MU	MUS	Mauritius	NULL
442	Maurícia	155	MU	MUS	Mauritius	NULL
443	Mayotte	246	YT	MYT	Mayotte	NULL
444	Mexico	158	MX	MEX	Mexico	1
445	Mexique	158	MX	MEX	Mexico	1
446	Federated States of Micronesia 	74	FM	FSM	Micronesia, Federated States of	NULL
447	Micronesia	74	FM	FSM	Micronesia, Federated States of	NULL
448	Micronesia (Federated States of)	74	FM	FSM	Micronesia, Federated States of	NULL
449	Micronesia, Federated States of	74	FM	FSM	Micronesia, Federated States of	NULL
450	Micronésie (États Fédérés de)	74	FM	FSM	Micronesia, Federated States of	NULL
451	Micronesie, Etats Federes de	74	FM	FSM	Micronesia, Federated States of	NULL
452	Moldova	140	MD	MDA	Moldova, Republic of	NULL
453	Moldova (Republic of)	140	MD	MDA	Moldova, Republic of	NULL
454	Moldova, Republic of	140	MD	MDA	Moldova, Republic of	NULL
455	Moldova, Republique De	140	MD	MDA	Moldova, Republic of	NULL
456	Republic of Moldova	140	MD	MDA	Moldova, Republic of	NULL
457	République de Moldova	140	MD	MDA	Moldova, Republic of	NULL
458	Moldavia	140	MD	MDA	Moldova, Republic of	NULL
459	Monaco	139	MC	MCO	Monaco	NULL
460	Mongolia	148	MN	MNG	Mongolia	NULL
461	Mongolie	148	MN	MNG	Mongolia	NULL
462	Montenegro	141	ME	MNE	Montenegro	NULL
463	Monténégro (Le)	141	ME	MNE	Montenegro	NULL
464	Montserrat	153	MS	MSR	Montserrat	NULL
465	Monserrate	153	MS	MSR	Montserrat	NULL
466	Maroc	138	MA	MAR	Morocco	NULL
467	Morocco	138	MA	MAR	Morocco	NULL
468	Marruecos	138	MA	MAR	Morocco	NULL
469	Marrocos	138	MA	MAR	Morocco	NULL
470	Mozambique	160	MZ	MOZ	Mozambique	NULL
471	Moçambique	160	MZ	MOZ	Mozambique	NULL
472	Myanmar	147	MM	MMR	Myanmar	NULL
473	Birmania; Myanmar	147	MM	MMR	Myanmar	NULL
474	Birmânia	147	MM	MMR	Myanmar	NULL
475	Burma	147	MM	MMR	Myanmar	NULL
476	Republic of Myanmar	147	MM	MMR	Myanmar	NULL
477	Namibia	161	NA	NAM	Namibia	NULL
478	Namibie	161	NA	NAM	Namibia	NULL
479	Nauru	170	NR	NRU	Nauru	NULL
480	Nepal	169	NP	NPL	Nepal	NULL
481	Netherlands	167	NL	NLD	Netherlands	NULL
482	Pays-Bas	167	NL	NLD	Netherlands	NULL
483	Países Bajos	167	NL	NLD	Netherlands	NULL
484	Países Baixos	167	NL	NLD	Netherlands	NULL
485	Holanda	167	NL	NLD	Netherlands	NULL
486	Netherlands Antilles	8	AN		Netherlands Antilles	1
487	Antillas Neerlandesas	8	AN		Netherlands Antilles	1
488	Antilhas Neerlandesas	8	AN		Netherlands Antilles	1
489	New Caledonia	162	NC	NCL	New Caledonia	NULL
490	Nouvelle-Caledonie	162	NC	NCL	New Caledonia	NULL
491	Nueva Caledonia	162	NC	NCL	New Caledonia	NULL
492	Nova Caledónia	162	NC	NCL	New Caledonia	NULL
493	New Zealand	172	NZ	NZL	New Zealand	NULL
494	Nouvelle-Zelande	172	NZ	NZL	New Zealand	NULL
495	Nueva Zelanda	172	NZ	NZL	New Zealand	NULL
496	Nova Zelândia	172	NZ	NZL	New Zealand	NULL
497	Nicaragua	166	NI	NIC	Nicaragua	1
498	Niger	163	NE	NER	Niger	NULL
499	Nigeria	165	NG	NGA	Nigeria	NULL
500	Nioué	171	NU	NIU	Niue	NULL
501	Niue	171	NU	NIU	Niue	NULL
502	Île Norfolk	164	NF	NFK	Norfolk Island	NULL
503	Norfolk Island	164	NF	NFK	Norfolk Island	NULL
504	Norfolk, Ile	164	NF	NFK	Norfolk Island	NULL
505	Isla Norfolk	164	NF	NFK	Norfolk Island	NULL
506	Ilha Norfolk	164	NF	NFK	Norfolk Island	NULL
507	Îles Mariannes Septentrionales	150	MP	MNP	Northern Mariana Islands	NULL
508	Mariannes du Nord, Iles	150	MP	MNP	Northern Mariana Islands	NULL
509	Northern Mariana Islands	150	MP	MNP	Northern Mariana Islands	NULL
510	Islas Marianas del Norte	150	MP	MNP	Northern Mariana Islands	NULL
511	Marianas do Norte	150	MP	MNP	Northern Mariana Islands	NULL
512	Norvege	168	NO	NOR	Norway	NULL
513	Norway	168	NO	NOR	Norway	NULL
514	Noruega	168	NO	NOR	Norway	NULL
515	Oman	173	OM	OMN	Oman	NULL
516	Omã	173	OM	OMN	Oman	NULL
517	Pakistan	179	PK	PAK	Pakistan	NULL
518	Paquistão	179	PK	PAK	Pakistan	NULL
519	Palaos	186	PW	PLW	Palau	NULL
520	Palau	186	PW	PLW	Palau	NULL
521	Occupied Palestinian Territory	184	PS	PSE	Palestinian Territory, Occupied	NULL
522	Palestinian Territory	184	PS	PSE	Palestinian Territory, Occupied	NULL
523	Palestinian Territory (Occupied)	184	PS	PSE	Palestinian Territory, Occupied	NULL
524	Palestinian Territory, Occupied	184	PS	PSE	Palestinian Territory, Occupied	NULL
525	Palestinien Occupe, Territoire	184	PS	PSE	Palestinian Territory, Occupied	NULL
526	Territoire Palestinien Occupé	184	PS	PSE	Palestinian Territory, Occupied	NULL
527	Panama	174	PA	PAN	Panama	1
528	Papouasie-Nouvelle-Guinee	177	PG	PNG	Papua New Guinea	NULL
529	Papua New Guinea	177	PG	PNG	Papua New Guinea	NULL
530	Papúa-Nueva Guinea	177	PG	PNG	Papua New Guinea	NULL
531	Papua-Nova Guiné	177	PG	PNG	Papua New Guinea	NULL
532	Irian Jaya	177	PG	PNG	Papua New Guinea	NULL
533	New Guinea	177	PG	PNG	Papua New Guinea	NULL
534	Paraguay	187	PY	PRY	Paraguay	1
535	Paraguai	187	PY	PRY	Paraguay	1
536	Perou	175	PE	PER	Peru	1
537	Peru	175	PE	PER	Peru	1
538	Philippines	178	PH	PHL	Philippines	NULL
539	Filipinas	178	PH	PHL	Philippines	NULL
540	Ilhas Filipinas	178	PH	PHL	Philippines	NULL
541	Phillipinas	178	PH	PHL	Philippines	NULL
542	Pitcairn	182	PN	PCN	Pitcairn	NULL
543	Islas Pitcairn	182	PN	PCN	Pitcairn	NULL
544	Poland	180	PL	POL	Poland	NULL
545	Pologne	180	PL	POL	Poland	NULL
546	Polonia	180	PL	POL	Poland	NULL
547	Portugal	185	PT	PRT	Portugal	NULL
548	Porto Rico	183	PR	PRI	Puerto Rico	1
549	Puerto Rico	183	PR	PRI	Puerto Rico	1
550	Qatar	188	QA	QAT	Qatar	NULL
551	Catar	188	QA	QAT	Qatar	NULL
552	Reunion	189	RE	REU	Réunion	NULL
553	Reunião	189	RE	REU	Réunion	NULL
554	Romania	190	RO	ROU	Romania	NULL
555	Roumanie	190	RO	ROU	Romania	NULL
556	Rumania; Rumanía	190	RO	ROU	Romania	NULL
557	Roménia	190	RO	ROU	Romania	NULL
558	Fédération de Russie	192	RU	RUS	Russian Federation	NULL
559	Russian Federation	192	RU	RUS	Russian Federation	NULL
560	Russie, Federation De	192	RU	RUS	Russian Federation	NULL
561	Rusia	192	RU	RUS	Russian Federation	NULL
562	Rússia	192	RU	RUS	Russian Federation	NULL
563	Rwanda	193	RW	RWA	Rwanda	NULL
564	Ruanda	193	RW	RWA	Rwanda	NULL
565	Saint Barthélemy	27	BL	BLM	Saint Barthélemy	NULL
566	Saint-Barthelemy	27	BL	BLM	Saint Barthélemy	NULL
567	Ascension and Tristan Da Cunha	200	SH	SHN	Saint Helena	1
568	Saint Helena	200	SH	SHN	Saint Helena	1
569	Saint Helena (Ascension and Tristan Da Cunha)	200	SH	SHN	Saint Helena	1
570	Sainte-Hélène	200	SH	SHN	Saint Helena	1
571	Sainte-Helene, Ascension et Tristan Da Cunha	200	SH	SHN	Saint Helena	1
572	Santa Helena	200	SH	SHN	Saint Helena	1
573	Saint Kitts and Nevis	121	KN	KNA	Saint Kitts and Nevis	1
574	Saint-Kitts-Et-Nevis	121	KN	KNA	Saint Kitts and Nevis	1
575	San Cristóbal y Nieves	121	KN	KNA	Saint Kitts and Nevis	1
576	São Cristóvão e Neves	121	KN	KNA	Saint Kitts and Nevis	1
577	Saint Lucia	129	LC	LCA	Saint Lucia	1
578	Sainte-Lucie	129	LC	LCA	Saint Lucia	1
579	Santa Lucía	129	LC	LCA	Saint Lucia	1
580	Saint Martin	142	MF	MAF	Saint Martin	1
581	Saint-Martin (French part)	142	MF	MAF	Saint Martin	1
582	Saint-Martin (Partie Francaise)	142	MF	MAF	Saint Martin	1
583	Saint Pierre and Miquelon	181	PM	SPM	Saint Pierre and Miquelon	1
584	Saint-Pierre-Et-Miquelon	181	PM	SPM	Saint Pierre and Miquelon	1
585	San Pedro y Miquelón	181	PM	SPM	Saint Pierre and Miquelon	1
586	São Pedro e Miquelon	181	PM	SPM	Saint Pierre and Miquelon	1
587	Saint Vincent and the Grenadines	237	VC	VCT	Saint Vincent and The Grenadines	1
588	Saint-Vincent-Et-Les Grenadines	237	VC	VCT	Saint Vincent and The Grenadines	1
589	San Vicente y las Granadinas	237	VC	VCT	Saint Vincent and The Grenadines	1
590	São Vicente e Granadinas	237	VC	VCT	Saint Vincent and The Grenadines	1
591	Samoa	244	WS	WSM	Samoa	NULL
592	Saint-Marin	205	SM	SMR	San Marino	NULL
593	Saint-Marino	205	SM	SMR	San Marino	NULL
594	San Marino	205	SM	SMR	San Marino	NULL
595	São Marinho	205	SM	SMR	San Marino	NULL
596	Sao Tome and Principe	209	ST	STP	Sao Tome and Principe	0
597	Sao Tome-Et-Principe	209	ST	STP	Sao Tome and Principe	0
598	Santo Tomé y Príncipe	209	ST	STP	Sao Tome and Principe	0
599	São Tomé e Príncipe	209	ST	STP	Sao Tome and Principe	0
600	Arabie Saoudite	194	SA	SAU	Saudi Arabia	NULL
601	Saudi Arabia	194	SA	SAU	Saudi Arabia	NULL
602	Arabia Saudí	194	SA	SAU	Saudi Arabia	NULL
603	Arábia Saudita	194	SA	SAU	Saudi Arabia	NULL
604	Senegal	206	SN	SEN	Senegal	NULL
605	Serbia	191	RS	SRB	Serbia	NULL
606	Serbie	191	RS	SRB	Serbia	NULL
607	Serbie (La)	191	RS	SRB	Serbia	NULL
608	Seychelles	196	SC	SYC	Seychelles	NULL
609	Seicheles	196	SC	SYC	Seychelles	NULL
610	Sierra Leone	204	SL	SLE	Sierra Leone	NULL
611	Sierra Leona	204	SL	SLE	Sierra Leone	NULL
612	Serra Leoa	204	SL	SLE	Sierra Leone	NULL
613	Singapore	199	SG	SGP	Singapore	NULL
614	Singapour	199	SG	SGP	Singapore	NULL
615	Singapur	199	SG	SGP	Singapore	NULL
616	Singapura	199	SG	SGP	Singapore	NULL
617	Saint-Martin (Partie Neerlandaise)	211	SX	SXM	Sint Maarten (Dutch part)	1
618	Sint Maarten (Dutch part)	211	SX	SXM	Sint Maarten (Dutch part)	1
619	Slovakia	203	SK	SVK	Slovakia	NULL
620	Slovaquie	203	SK	SVK	Slovakia	NULL
621	Eslovaquia	203	SK	SVK	Slovakia	NULL
622	Slovenia	201	SI	SVN	Slovenia	NULL
623	Slovenie	201	SI	SVN	Slovenia	NULL
624	Eslovenia	201	SI	SVN	Slovenia	NULL
625	Îles Salomon	195	SB	SLB	Solomon Islands	NULL
626	Salomon, Iles	195	SB	SLB	Solomon Islands	NULL
627	Solomon Islands	195	SB	SLB	Solomon Islands	NULL
628	Islas Salomón	195	SB	SLB	Solomon Islands	NULL
629	Ilhas Salomão	195	SB	SLB	Solomon Islands	NULL
630	Somalia	207	SO	SOM	Somalia	NULL
631	Somalie	207	SO	SOM	Somalia	NULL
632	Afrique du Sud	248	ZA	ZAF	South Africa	NULL
633	South Africa	248	ZA	ZAF	South Africa	NULL
634	Sudáfrica	248	ZA	ZAF	South Africa	NULL
635	África do Sul	248	ZA	ZAF	South Africa	NULL
636	Georgie du Sud et Les Iles Sandwich du Sud	91	GS		South Georgia and the South Sandwich Islands	NULL
637	South Georgia and the South Sandwich Islands	91	GS		South Georgia and the South Sandwich Islands	NULL
638	South Sandwich Islands	91	GS		South Georgia and the South Sandwich Islands	NULL
639	Islas Georgia del Sur y Sandwich del Sur	91	GS		South Georgia and the South Sandwich Islands	NULL
640	Geórgia do Sul e Sandwich do Sul	91	GS		South Georgia and the South Sandwich Islands	NULL
641	Ilhas Sandwich	91	GS		South Georgia and the South Sandwich Islands	NULL
642	South Georgia	91	GS		South Georgia and the South Sandwich Islands	NULL
643	Espagne	69	ES	ESP	Spain	NULL
644	Spain	69	ES	ESP	Spain	NULL
645	España	69	ES	ESP	Spain	NULL
646	Espanha	69	ES	ESP	Spain	NULL
647	Sri Lanka	131	LK	LKA	Sri Lanka	NULL
648	Sri Lanca	131	LK	LKA	Sri Lanka	NULL
649	Soudan	197	SD	SDN	Sudan	NULL
650	Sudan	197	SD	SDN	Sudan	NULL
651	Sudão	197	SD	SDN	Sudan	NULL
652	Suriname	208	SR	SUR	Suriname	1
653	Surinam	208	SR	SUR	Suriname	1
654	Îles Svalbard et Jan Mayen	202	SJ	SJM	Svalbard and Jan Mayen	NULL
655	Svalbard and Jan Mayen	202	SJ	SJM	Svalbard and Jan Mayen	NULL
656	Svalbard and Jan Mayen Islands	202	SJ	SJM	Svalbard and Jan Mayen	NULL
657	Svalbard et Ile Jan Mayen	202	SJ	SJM	Svalbard and Jan Mayen	NULL
658	Svalbard y Jan Mayen	202	SJ	SJM	Svalbard and Jan Mayen	NULL
659	Svalbard e Jan Mayen	202	SJ	SJM	Svalbard and Jan Mayen	NULL
660	Swaziland	213	SZ	SWZ	Swaziland	NULL
661	Suazilandia	213	SZ	SWZ	Swaziland	NULL
662	Suede	198	SE	SWE	Sweden	NULL
663	Sweden	198	SE	SWE	Sweden	NULL
664	Suecia	198	SE	SWE	Sweden	NULL
665	Suisse	44	CH	CHE	Switzerland	NULL
666	Switzerland	44	CH	CHE	Switzerland	NULL
667	Suiza	44	CH	CHE	Switzerland	NULL
668	Suíça	44	CH	CHE	Switzerland	NULL
669	République Arabe Syrienne	212	SY	SYR	Syrian Arab Republic	NULL
670	Syria	212	SY	SYR	Syrian Arab Republic	NULL
671	Syrian Arab Republic	212	SY	SYR	Syrian Arab Republic	NULL
672	Syrienne, Republique Arabe	212	SY	SYR	Syrian Arab Republic	NULL
673	Siria	212	SY	SYR	Syrian Arab Republic	NULL
674	Taiwan	228	TW		Taiwan	NULL
675	Taiwan (Province of China)	228	TW		Taiwan	NULL
676	Taiwan, Province de Chine	228	TW		Taiwan	NULL
677	Tadjikistan	219	TJ	TJK	Tajikistan	NULL
678	Tajikistan	219	TJ	TJK	Tajikistan	NULL
679	Tayikistán	219	TJ	TJK	Tajikistan	NULL
680	Tajiquistão	219	TJ	TJK	Tajikistan	NULL
681	République-Unie de Tanzanie	229	TZ	TZA	Tanzania	NULL
682	Tanzania	229	TZ	TZA	Tanzania	NULL
683	Tanzania (United Republic of)	229	TZ	TZA	Tanzania	NULL
684	Tanzanie, Republique-Unie De	229	TZ	TZA	Tanzania	NULL
685	United Republic of Tanzania	229	TZ	TZA	Tanzania	NULL
686	Tanganyika	229	TZ	TZA	Tanzania	NULL
687	Thailand	218	TH	THA	Thailand	NULL
688	Thailande	218	TH	THA	Thailand	NULL
689	Tailandia	218	TH	THA	Thailand	NULL
690	Timor-Leste	221	TL	TLS	Timor-Leste	NULL
691	Timor Oriental	221	TL	TLS	Timor-Leste	NULL
692	Timor Leste	221	TL	TLS	Timor-Leste	NULL
693	Togo	217	TG	TGO	Togo	NULL
694	Tokélaou	220	TK	TKL	Tokelau	NULL
695	Tokelau	220	TK	TKL	Tokelau	NULL
696	Tonga	224	TO	TON	Tonga	NULL
697	Trinidad and Tobago	226	TT	TTO	Trinidad and Tobago	1
698	Trinite-Et-Tobago	226	TT	TTO	Trinidad and Tobago	1
699	Trinidad y Tobago	226	TT	TTO	Trinidad and Tobago	1
700	Trindade e Tobago	226	TT	TTO	Trinidad and Tobago	1
701	Trinidad	226	TT	TTO	Trinidad and Tobago	1
702	Trinidad e Tobago	226	TT	TTO	Trinidad and Tobago	1
703	Tunisia	223	TN	TUN	Tunisia	NULL
704	Tunisie	223	TN	TUN	Tunisia	NULL
705	Túnez	223	TN	TUN	Tunisia	NULL
706	Turkey	225	TR	TUR	Turkey	NULL
707	Turquie	225	TR	TUR	Turkey	NULL
708	Turquía	225	TR	TUR	Turkey	NULL
709	Turkmenistan	222	TM	TKM	Turkmenistan	NULL
710	Turquemenistão	222	TM	TKM	Turkmenistan	NULL
711	Îles Turques et Caïques	214	TC	TCA	Turks and Caicos Islands	1
712	Turks and Caicos Islands	214	TC	TCA	Turks and Caicos Islands	1
713	Turks et Caiques, Iles	214	TC	TCA	Turks and Caicos Islands	1
714	Islas Turcas y Caicos	214	TC	TCA	Turks and Caicos Islands	1
715	Ilhas Turcas e Caicos	214	TC	TCA	Turks and Caicos Islands	1
716	Tuvalu	227	TV	TUV	Tuvalu	NULL
717	Îles Vierges Américaines	240	VI	VIR	U.S. Virgin Islands	1
718	Iles Vierges des Etats-Unis	240	VI	VIR	U.S. Virgin Islands	1
719	U.S. Virgin Islands	240	VI	VIR	U.S. Virgin Islands	1
720	United States Virgin Islands	240	VI	VIR	U.S. Virgin Islands	1
721	US Virgin Islands	240	VI	VIR	U.S. Virgin Islands	1
722	Virgin Islands (U.S.)	240	VI	VIR	U.S. Virgin Islands	1
723	Virgin Islands, U.S.	240	VI	VIR	U.S. Virgin Islands	1
724	Islas Vírgenes Americanas	240	VI	VIR	U.S. Virgin Islands	1
725	Ilhas Virgens Americanas	240	VI	VIR	U.S. Virgin Islands	1
726	Ouganda	231	UG	UGA	Uganda	NULL
727	Uganda	231	UG	UGA	Uganda	NULL
728	Ukraine	230	UA	UKR	Ukraine	NULL
729	Ucrania	230	UA	UKR	Ukraine	NULL
730	Emirats Arabes Unis	2	AE	ARE	United Arab Emirates	NULL
731	United Arab Emirates	2	AE	ARE	United Arab Emirates	NULL
732	Emiratos Árabes Unidos	2	AE	ARE	United Arab Emirates	NULL
733	Royaume-Uni	78	GB	GBR	United Kingdom	NULL
734	Royaume-Uni de Grande-Bretagne et d'Irlande du Nord	78	GB	GBR	United Kingdom	NULL
735	United Kingdom	78	GB	GBR	United Kingdom	NULL
736	United Kingdom of Great Britain and Northern Ireland	78	GB	GBR	United Kingdom	NULL
737	Reino Unido	78	GB	GBR	United Kingdom	NULL
738	Great Britain	78	GB	GBR	United Kingdom	NULL
739	Britain	78	GB	GBR	United Kingdom	NULL
740	Gran Bretana	78	GB	GBR	United Kingdom	NULL
741	Inglaterra	78	GB	GBR	United Kingdom	NULL
742	Etats-Unis	233	US	USA	United States	1
743	États-Unis D'Amérique	233	US	USA	United States	1
744	United States	233	US	USA	United States	1
745	United States of America	233	US	USA	United States	1
746	USA	233	US	USA	United States	1
747	Estados Unidos	233	US	USA	United States	1
748	E.U.A	233	US	USA	United States	1
749	EUA	233	US	USA	United States	1
750	U.S.A.	233	US	USA	United States	1
751	U.S.	233	US	USA	United States	1
752	EEUUAA	233	US	USA	United States	1
753	E.E.U.U.A.A.	233	US	USA	United States	1
754	EEUU	233	US	USA	United States	1
755	E.E.U.U.	233	US	USA	United States	1
756	Iles Mineures Eloignees des Etats-Unis	232	UM		United States Minor Outlying Islands	NULL
757	United States Minor Outlying Islands	232	UM		United States Minor Outlying Islands	NULL
758	Islas menores alejadas de los Estados Unidos	232	UM		United States Minor Outlying Islands	NULL
759	Ilhas Menores Distantes dos Estados Unidos	232	UM		United States Minor Outlying Islands	NULL
760	Uruguay	234	UY	URY	Uruguay	1
761	Uruguai	234	UY	URY	Uruguay	1
762	Ouzbekistan	235	UZ	UZB	Uzbekistan	NULL
763	Uzbekistan	235	UZ	UZB	Uzbekistan	NULL
764	Usbequistão	235	UZ	UZB	Uzbekistan	NULL
765	Vanuatu	242	VU	VUT	Vanuatu	NULL
766	Holy See	236	VA	VAT	Vatican City State	NULL
767	Holy See (Vatican City State)	236	VA	VAT	Vatican City State	NULL
768	Saint-Siège	236	VA	VAT	Vatican City State	NULL
769	Saint-Siege (Etat de La Cite du Vatican)	236	VA	VAT	Vatican City State	NULL
770	Vatican	236	VA	VAT	Vatican City State	NULL
771	Vatican City State	236	VA	VAT	Vatican City State	NULL
772	Vatican, Etat de La Cite Du	236	VA	VAT	Vatican City State	NULL
773	El Vaticano	236	VA	VAT	Vatican City State	NULL
774	Vaticano	236	VA	VAT	Vatican City State	NULL
775	Vatican City	236	VA	VAT	Vatican City State	NULL
776	Bolivarian Republic of Venezuela	238	VE	VEN	Venezuela	1
777	Venezuela	238	VE	VEN	Venezuela	1
778	Venezuela (Bolivarian Republic of)	238	VE	VEN	Venezuela	1
779	Venezuela (République Bolivarienne Du)	238	VE	VEN	Venezuela	1
780	Venezuela, Republique Bolivarienne Du	238	VE	VEN	Venezuela	1
781	Viet Nam	241	VN	VNM	Vietnam	NULL
782	Vietnam	241	VN	VNM	Vietnam	NULL
783	Vietname	241	VN	VNM	Vietnam	NULL
784	Îles Wallis et Futuna	243	WF	WLF	Wallis and Futuna	NULL
785	Wallis and Futuna	243	WF	WLF	Wallis and Futuna	NULL
786	Wallis and Futuna Islands	243	WF	WLF	Wallis and Futuna	NULL
787	Wallis et Futuna	243	WF	WLF	Wallis and Futuna	NULL
788	Wallis y Futuna	243	WF	WLF	Wallis and Futuna	NULL
789	Wallis e Futuna	243	WF	WLF	Wallis and Futuna	NULL
790	Sahara Occidental	67	EH	ESH	Western Sahara	NULL
791	Western Sahara	67	EH	ESH	Western Sahara	NULL
792	Sara Ocidental	67	EH	ESH	Western Sahara	NULL
793	Yemen	245	YE	YEM	Yemen	NULL
794	Iémen	245	YE	YEM	Yemen	NULL
795	Yugoslavia	247	YU	YUG	Yugoslavia	NULL
796	Jugoslávia	247	YU	YUG	Yugoslavia	NULL
797	Zambia	249	ZM	ZMB	Zambia	NULL
798	Zambie	249	ZM	ZMB	Zambia	NULL
799	Zimbabwe	250	ZW	ZWE	Zimbabwe	NULL
800	Zimbabue	250	ZW	ZWE	Zimbabwe	NULL
